ONEWEB-0271             
1 48989U 21060Y   25254.64199213 -.00000020  00000+0 -85941-4 0  9994
2 48989  87.8988 284.2834 0001615  88.5487 271.5829 13.16594994203013
ONEWEB-0272             
1 48990U 21060Z   25254.89213774 -.00000024  00000+0 -96644-4 0  9998
2 48990  87.8978 284.2615 0001747  86.0434 274.0896 13.16595749202999
ONEWEB-0273             
1 48991U 21060AA  25254.61033719  .00000078  00000+0  17017-3 0  9991
2 48991  87.8984 284.3057 0001739  94.8202 265.3127 13.16593836202938
ONEWEB-0274             
1 48992U 21060AB  25254.55966699  .00000001  00000+0 -30683-4 0  9999
2 48992  87.8981 284.3473 0001953  80.9302 279.2050 13.16594622202969
ONEWEB-0275             
1 48993U 21060AC  25254.54857770  .00000014  00000+0  33399-5 0  9999
2 48993  87.8985 284.3128 0001838  89.5538 270.5803 13.16594144202890
ONEWEB-0276             
1 48994U 21060AD  25254.58182673  .00000023  00000+0  27133-4 0  9995
2 48994  87.8987 284.3033 0001791  97.8578 262.2756 13.16595527202916
ONEWEB-0277             
1 48995U 21060AE  25254.89847241  .00000044  00000+0  80834-4 0  9999
2 48995  87.8978 284.2731 0001534  87.7624 272.3683 13.16594837202943
ONEWEB-0278             
1 48996U 21060AF  25254.58498483 -.00000022  00000+0 -92375-4 0  9997
2 48996  87.8987 284.2994 0001975  99.4844 260.6510 13.16595823203034
ONEWEB-0279             
1 48997U 21060AG  25254.59289380 -.00000019  00000+0 -84328-4 0  9998
2 48997  87.8985 284.2930 0001649  83.6859 276.4460 13.16595923202963
ONEWEB-0280             
1 48998U 21060AH  25254.60795063  .00000070  00000+0  14925-3 0  9991
2 48998  87.8986 284.2985 0001640 101.7475 258.3840 13.16592889202905
ONEWEB-0281             
1 48999U 21060AJ  25254.61349982  .00000144  00000+0  34416-3 0  9997
2 48999  87.8984 284.2941 0001948  88.4566 271.6788 13.16593524202972
ONEWEB-0282             
1 49000U 21060AK  25254.56757725 -.00000041  00000+0 -14042-3 0  9994
2 49000  87.8987 284.3129 0001699  94.4070 265.7255 13.16594963202946
ONEWEB-0283             
1 49001U 21060AL  25254.63248812 -.00000046  00000+0 -15270-3 0  9994
2 49001  87.8980 284.3025 0001706  89.9013 270.2313 13.16595596202961
ONEWEB-0284             
1 49002U 21060AM  25254.62616239  .00000041  00000+0  74265-4 0  9999
2 49002  87.8992 284.2847 0001965 102.0618 258.0734 13.16594878202942
ONEWEB-0285             
1 49075U 21075A   25254.87090207  .00000435  00000+0  11747-2 0  9994
2 49075  87.8898  45.9553 0001634  96.1351 263.9964 13.12443150198703
ONEWEB-0286             
1 49076U 21075B   25254.92899845  .00000002  00000+0 -28438-4 0  9994
2 49076  87.8901  45.9784 0001876  93.9225 266.2118 13.12442809198064
ONEWEB-0287             
1 49077U 21075C   25254.93652029 -.00000014  00000+0 -68820-4 0  9990
2 49077  87.9049  61.2114 0002053  92.7685 267.3681 13.17646854196989
ONEWEB-0288             
1 49078U 21075D   25254.90481162 -.00000332  00000+0 -95746-3 0  9995
2 49078  87.8897  45.9431 0001743  99.8051 260.3274 13.12442861198688
ONEWEB-0289             
1 49079U 21075E   25254.89926112  .00000190  00000+0  45705-3 0  9993
2 49079  87.9036  61.2447 0001718 107.8451 252.2868 13.17647715197553
ONEWEB-0290             
1 49080U 21075F   25254.87239610  .00000013  00000+0  92576-6 0  9998
2 49080  87.9047  61.2042 0001316 109.2818 250.8456 13.17649547196961
ONEWEB-0291             
1 49081U 21075G   25254.93316061  .00000000  00000+0 -34248-4 0  9999
2 49081  87.9046  61.1966 0001953 101.9362 258.1988 13.17651238196966
ONEWEB-0293             
1 49082U 21075H   25254.88252502  .00000006  00000+0 -16973-4 0  9994
2 49082  87.9037  61.2363 0001669  96.7550 263.3772 13.17651054196980
ONEWEB-0294             
1 49083U 21075J   25254.91130292 -.00000367  00000+0 -10553-2 0  9997
2 49083  87.8898  45.9424 0001610 112.5018 247.6281 13.12443248198075
ONEWEB-0295             
1 49084U 21075K   25254.88168080  .00000051  00000+0  97226-4 0  9992
2 49084  87.9047  61.2398 0002022  99.3852 260.7508 13.17648360196949
ONEWEB-0296             
1 49085U 21075L   25254.89183748  .00000055  00000+0  11760-3 0  9994
2 49085  87.8896  45.9519 0001974 109.9052 250.2290 13.12442537198071
ONEWEB-0297             
1 49086U 21075M   25254.92265034 -.00000181  00000+0 -53763-3 0  9999
2 49086  87.8889  45.9838 0001751  95.3095 264.8234 13.12445354198682
ONEWEB-0298             
1 49087U 21075N   25254.88603043 -.00000063  00000+0 -19565-3 0  9992
2 49087  87.9039  61.2334 0001708  90.2404 269.8923 13.17651091196975
ONEWEB-0299             
1 49088U 21075P   25254.88758389  .00000130  00000+0  30094-3 0  9990
2 49088  87.9049  61.1897 0001943  91.0358 269.0996 13.17650879196951
ONEWEB-0300             
1 49089U 21075Q   25254.91454627 -.00000355  00000+0 -10227-2 0  9999
2 49089  87.8896  45.9383 0001709  83.6753 276.4570 13.12443549198701
ONEWEB-0301             
1 49090U 21075R   25254.89832548 -.00000188  00000+0 -55744-3 0  9998
2 49090  87.8893  45.9456 0001690  79.6899 280.4420 13.12442355198068
ONEWEB-0302             
1 49091U 21075S   25254.88534301  .00000287  00000+0  76223-3 0  9997
2 49091  87.8898  45.9545 0001701 107.7725 252.3590 13.12443484198045
ONEWEB-0304             
1 49092U 21075T   25254.93821472 -.00000013  00000+0 -66334-4 0  9994
2 49092  87.9047  61.2104 0001853  94.4006 265.7338 13.17649686196938
ONEWEB-0305             
1 49093U 21075U   25254.93145992 -.00000026  00000+0 -99057-4 0  9993
2 49093  87.9047  61.1883 0002135  96.4387 263.6988 13.17647513196968
ONEWEB-0308             
1 49094U 21075V   25254.87886590  .00000495  00000+0  13396-2 0  9991
2 49094  87.8901  45.9475 0001672  94.3547 265.7772 13.12443744198055
ONEWEB-0309             
1 49095U 21075W   25254.93483513 -.00000032  00000+0 -11639-3 0  9995
2 49095  87.9046  61.2048 0001652 106.7334 253.3979 13.17649190196939
ONEWEB-0310             
1 49096U 21075X   25254.89345746 -.00000051  00000+0 -17820-3 0  9995
2 49096  87.8893  45.9894 0001652  98.8052 261.3264 13.12442375198686
ONEWEB-0311             
1 49097U 21075Y   25254.94158574 -.00000065  00000+0 -20100-3 0  9993
2 49097  87.9039  61.2012 0002130  92.6358 267.5017 13.17649728196987
ONEWEB-0312             
1 49098U 21075Z   25254.88083894  .00000030  00000+0  43496-4 0  9993
2 49098  87.9038  61.2454 0001960 100.9286 259.2067 13.17649047196954
ONEWEB-0313             
1 49099U 21075AA  25254.20234608  .00000003  00000+0 -24866-4 0  9992
2 49099  87.9029  61.3925 0001820  93.4156 266.7184 13.17649278196854
ONEWEB-0314             
1 49100U 21075AB  25254.92808879  .00000045  00000+0  81896-4 0  9992
2 49100  87.9049  61.1859 0001990  99.6591 260.4765 13.17649003196922
ONEWEB-0315             
1 49101U 21075AC  25254.86751319  .00000429  00000+0  11560-2 0  9997
2 49101  87.8893  45.9401 0002070  90.7297 269.4069 13.12443609198665
ONEWEB-0316             
1 49102U 21075AD  25254.91974905  .00000029  00000+0  41436-4 0  9995
2 49102  87.9187  30.7237 0001841  93.9680 266.1663 13.18687436200536
ONEWEB-0317             
1 49103U 21075AE  25254.93726060  .00000326  00000+0  87018-3 0  9990
2 49103  87.8896  45.9409 0001125 120.7184 239.4056 13.12444661198692
ONEWEB-0318             
1 49104U 21075AF  25254.84056843  .00000047  00000+0  85627-4 0  9991
2 49104  87.9188  30.7259 0001940  94.8403 265.2950 13.18686524200486
ONEWEB-0319             
1 49105U 21075AG  25254.18391824 -.00000049  00000+0 -15916-3 0  9997
2 49105  87.9038  61.3780 0002180  93.1069 267.0312 13.17648681196866
ONEWEB-0323             
1 49106U 21075AH  25254.92752597 -.00000022  00000+0 -95947-4 0  9992
2 49106  87.8897  45.9293 0002416  96.7828 263.3576 13.12444256198051
ONEWEB-0329             
1 49107U 21075AJ  25254.87579091 -.00000064  00000+0 -19778-3 0  9996
2 49107  87.9036  61.2437 0001878  95.3601 264.7745 13.17647885196930
ONEWEB-0330             
1 49108U 21075AK  25254.87661868  .00000016  00000+0  89006-5 0  9999
2 49108  87.9040  61.2474 0001787 100.1686 259.9647 13.17648222196971
ONEWEB-0292             
1 49186U 21083A   25254.88880122 -.00000038  00000+0 -14022-3 0  9991
2 49186  87.9025  15.5520 0001890  97.4197 262.7147 13.13470759194399
ONEWEB-0303             
1 49187U 21083B   25254.91313503 -.00000033  00000+0 -11719-3 0  9995
2 49187  87.9186  30.7119 0001925  95.7261 264.4090 13.18687658193302
ONEWEB-0306             
1 49188U 21083C   25254.90323841  .00000063  00000+0  12610-3 0  9993
2 49188  87.9188  30.6996 0001542  99.9067 260.2239 13.18687390193348
ONEWEB-0307             
1 49189U 21083D   25254.88286943  .00000141  00000+0  35125-3 0  9995
2 49189  87.9020  15.5510 0001575 109.3420 250.7879 13.13468605194394
ONEWEB-0320             
1 49190U 21083E   25254.83396038  .00000028  00000+0  37949-4 0  9990
2 49190  87.9185  30.7415 0001754  97.0191 263.1141 13.18685782193298
ONEWEB-0321             
1 49191U 21083F   25254.71896852  .00000081  00000+0  16613-3 0  9990
2 49191  87.9274 329.9479 0001573 103.7428 256.3881 13.20771633200072
ONEWEB-0322             
1 49192U 21083G   25254.80246331  .00000235  00000+0  60833-3 0  9996
2 49192  87.9026  15.5632 0001329 104.1772 255.9505 13.13472022194378
ONEWEB-0324             
1 49193U 21083H   25254.89664228  .00000103  00000+0  22813-3 0  9995
2 49193  87.9185  30.7086 0001800 102.2499 257.8835 13.18685838193323
ONEWEB-0325             
1 49194U 21083J   25254.89993136  .00000107  00000+0  23875-3 0  9992
2 49194  87.9186  30.7255 0001604  95.7736 264.3579 13.18687978193331
ONEWEB-0326             
1 49195U 21083K   25254.83904739  .00000041  00000+0  72126-4 0  9999
2 49195  87.9185  30.7256 0002023  91.4830 268.6534 13.18685320193311
ONEWEB-0327             
1 49196U 21083L   25254.83877173  .00000049  00000+0  90304-4 0  9997
2 49196  87.9178  30.7527 0001968  88.2125 271.9233 13.18689643193330
